SL-14 R/B               
1 16792U 86046B   25345.97358731  .00000846  00000+0  94800-4 0  9993
2 16792  82.4811 163.0378 0023735 154.7036 205.5348 14.85483407113382
SL-14 R/B               
1 16882U 86055B   25346.11634748  .00000718  00000+0  80136-4 0  9990
2 16882  82.5204 208.9586 0017462 261.6718 211.9122 14.85530014106362
AJISAI (EGS)            
1 16908U 86061A   25346.17491943 -.00000092  00000+0  36015-4 0  9993
2 16908  50.0113   2.4540 0011292  64.4917 338.0694 12.44514267457103
COSMOS 1812             
1 17295U 87003A   25345.90469904  .00120796  00000+0  79456-3 0  9990
2 17295  82.4866 292.9201 0007236  87.9224 272.2869 15.75276479130525
SL-14 R/B               
1 17567U 87024B   25346.03879258  .00000764  00000+0  84380-4 0  9992
2 17567  82.5274 175.1130 0018012 186.5509 173.5475 14.86022551 75110
COSMOS 1833             
1 17589U 87027A   25346.15145510  .00000157  00000+0  10967-3 0  9994
2 17589  70.9137 150.0141 0022514 332.5461  27.4469 14.13021247997944
SL-16 R/B               
1 17590U 87027B   25345.60250828 -.00000027  00000+0  10601-4 0  9997
2 17590  71.0028 102.1142 0007439 260.6811  99.3472 14.17152040  2865
SL-14 R/B               
1 17912U 87038B   25346.12346742  .00000681  00000+0  76271-4 0  9996
2 17912  82.5018  19.2815 0020900  93.9634 266.3971 14.85260465 66239
COSMOS 1844             
1 17973U 87041A   25346.06697889 -.00000058  00000+0 -52499-5 0  9998
2 17973  70.8977 218.9907 0030094 158.2046 202.0364 14.14526094991197
SL-14 R/B               
1 18153U 87055B   25346.18280582  .00000809  00000+0  90718-4 0  9992
2 18153  82.5002  71.5134 0019430 305.3051  54.6347 14.85520617 56944
COSMOS 1867             
1 18187U 87060A   25345.97410391 -.00000011  00000+0  33399-4 0  9992
2 18187  65.0092 192.3470 0013624 271.0133  88.9390 14.31485875  7389
SL-14 R/B               
1 18749U 88001B   25346.17236039  .00000841  00000+0  94551-4 0  9997
2 18749  82.5132 277.6809 0018430 162.8934 197.2908 14.85423186 29032
