CCSDS_OMM_VERS = 2.0
CREATION_DATE  = 
ORIGINATOR     = 

OBJECT_NAME    = SL-14 R/B
OBJECT_ID      = 1986-046B
CENTER_NAME    = EARTH
REF_FRAME      = TEME
TIME_SYSTEM    = UTC
MEAN_ELEMENT_THEORY = SGP/SGP4

EPOCH          = 2025-12-11T23:21:57.943584
MEAN_MOTION    = 14.85483407
ECCENTRICITY   = .0023735
INCLINATION    = 82.4811
RA_OF_ASC_NODE = 163.0378
ARG_OF_PERICENTER = 154.7036
MEAN_ANOMALY   = 205.5348

EPHEMERIS_TYPE = 0
CLASSIFICATION_TYPE = U
NORAD_CAT_ID   = 16792
ELEMENT_SET_NO = 999
REV_AT_EPOCH   = 11338
BSTAR          = .948E-4
MEAN_MOTION_DOT = .846E-5
MEAN_MOTION_DDOT = 0

CCSDS_OMM_VERS = 2.0
CREATION_DATE  = 
ORIGINATOR     = 

OBJECT_NAME    = SL-14 R/B
OBJECT_ID      = 1986-055B
CENTER_NAME    = EARTH
REF_FRAME      = TEME
TIME_SYSTEM    = UTC
MEAN_ELEMENT_THEORY = SGP/SGP4

EPOCH          = 2025-12-12T02:47:32.422272
MEAN_MOTION    = 14.85530014
ECCENTRICITY   = .0017462
INCLINATION    = 82.5204
RA_OF_ASC_NODE = 208.9586
ARG_OF_PERICENTER = 261.6718
MEAN_ANOMALY   = 211.9122

EPHEMERIS_TYPE = 0
CLASSIFICATION_TYPE = U
NORAD_CAT_ID   = 16882
ELEMENT_SET_NO = 999
REV_AT_EPOCH   = 10636
BSTAR          = .80136E-4
MEAN_MOTION_DOT = .718E-5
MEAN_MOTION_DDOT = 0

CCSDS_OMM_VERS = 2.0
CREATION_DATE  = 
ORIGINATOR     = 

OBJECT_NAME    = AJISAI (EGS)
OBJECT_ID      = 1986-061A
CENTER_NAME    = EARTH
REF_FRAME      = TEME
TIME_SYSTEM    = UTC
MEAN_ELEMENT_THEORY = SGP/SGP4

EPOCH          = 2025-12-12T04:11:53.038752
MEAN_MOTION    = 12.44514267
ECCENTRICITY   = .0011292
INCLINATION    = 50.0113
RA_OF_ASC_NODE = 2.4540
ARG_OF_PERICENTER = 64.4917
MEAN_ANOMALY   = 338.0694

EPHEMERIS_TYPE = 0
CLASSIFICATION_TYPE = U
NORAD_CAT_ID   = 16908
ELEMENT_SET_NO = 999
REV_AT_EPOCH   = 45710
BSTAR          = .36015E-4
MEAN_MOTION_DOT = -.92E-6
MEAN_MOTION_DDOT = 0

CCSDS_OMM_VERS = 2.0
CREATION_DATE  = 
ORIGINATOR     = 

OBJECT_NAME    = COSMOS 1812
OBJECT_ID      = 1987-003A
CENTER_NAME    = EARTH
REF_FRAME      = TEME
TIME_SYSTEM    = UTC
MEAN_ELEMENT_THEORY = SGP/SGP4

EPOCH          = 2025-12-11T21:42:45.997056
MEAN_MOTION    = 15.75276479
ECCENTRICITY   = .0007236
INCLINATION    = 82.4866
RA_OF_ASC_NODE = 292.9201
ARG_OF_PERICENTER = 87.9224
MEAN_ANOMALY   = 272.2869

EPHEMERIS_TYPE = 0
CLASSIFICATION_TYPE = U
NORAD_CAT_ID   = 17295
ELEMENT_SET_NO = 999
REV_AT_EPOCH   = 13052
BSTAR          = .79456E-3
MEAN_MOTION_DOT = .120796E-2
MEAN_MOTION_DDOT = 0

CCSDS_OMM_VERS = 2.0
CREATION_DATE  = 
ORIGINATOR     = 

OBJECT_NAME    = SL-14 R/B
OBJECT_ID      = 1987-024B
CENTER_NAME    = EARTH
REF_FRAME      = TEME
TIME_SYSTEM    = UTC
MEAN_ELEMENT_THEORY = SGP/SGP4

EPOCH          = 2025-12-12T00:55:51.678912
MEAN_MOTION    = 14.86022551
ECCENTRICITY   = .0018012
INCLINATION    = 82.5274
RA_OF_ASC_NODE = 175.1130
ARG_OF_PERICENTER = 186.5509
MEAN_ANOMALY   = 173.5475

EPHEMERIS_TYPE = 0
CLASSIFICATION_TYPE = U
NORAD_CAT_ID   = 17567
ELEMENT_SET_NO = 999
REV_AT_EPOCH   = 7511
BSTAR          = .8438E-4
MEAN_MOTION_DOT = .764E-5
MEAN_MOTION_DDOT = 0

CCSDS_OMM_VERS = 2.0
CREATION_DATE  = 
ORIGINATOR     = 

OBJECT_NAME    = COSMOS 1833
OBJECT_ID      = 1987-027A
CENTER_NAME    = EARTH
REF_FRAME      = TEME
TIME_SYSTEM    = UTC
MEAN_ELEMENT_THEORY = SGP/SGP4

EPOCH          = 2025-12-12T03:38:05.720640
MEAN_MOTION    = 14.13021247
ECCENTRICITY   = .0022514
INCLINATION    = 70.9137
RA_OF_ASC_NODE = 150.0141
ARG_OF_PERICENTER = 332.5461
MEAN_ANOMALY   = 27.4469

EPHEMERIS_TYPE = 0
CLASSIFICATION_TYPE = U
NORAD_CAT_ID   = 17589
ELEMENT_SET_NO = 999
REV_AT_EPOCH   = 99794
BSTAR          = .10967E-3
MEAN_MOTION_DOT = .157E-5
MEAN_MOTION_DDOT = 0

CCSDS_OMM_VERS = 2.0
CREATION_DATE  = 
ORIGINATOR     = 

OBJECT_NAME    = SL-16 R/B
OBJECT_ID      = 1987-027B
CENTER_NAME    = EARTH
REF_FRAME      = TEME
TIME_SYSTEM    = UTC
MEAN_ELEMENT_THEORY = SGP/SGP4

EPOCH          = 2025-12-11T14:27:36.715392
MEAN_MOTION    = 14.17152040
ECCENTRICITY   = .00074394
INCLINATION    = 71.0028
RA_OF_ASC_NODE = 102.1142
ARG_OF_PERICENTER = 260.6811
MEAN_ANOMALY   = 99.3472

EPHEMERIS_TYPE = 0
CLASSIFICATION_TYPE = U
NORAD_CAT_ID   = 17590
ELEMENT_SET_NO = 999
REV_AT_EPOCH   = 286
BSTAR          = .10600863E-4
MEAN_MOTION_DOT = -.27E-6
MEAN_MOTION_DDOT = 0

CCSDS_OMM_VERS = 2.0
CREATION_DATE  = 
ORIGINATOR     = 

OBJECT_NAME    = SL-14 R/B
OBJECT_ID      = 1987-038B
CENTER_NAME    = EARTH
REF_FRAME      = TEME
TIME_SYSTEM    = UTC
MEAN_ELEMENT_THEORY = SGP/SGP4

EPOCH          = 2025-12-12T02:57:47.585088
MEAN_MOTION    = 14.85260465
ECCENTRICITY   = .00209
INCLINATION    = 82.5018
RA_OF_ASC_NODE = 19.2815
ARG_OF_PERICENTER = 93.9634
MEAN_ANOMALY   = 266.3971

EPHEMERIS_TYPE = 0
CLASSIFICATION_TYPE = U
NORAD_CAT_ID   = 17912
ELEMENT_SET_NO = 999
REV_AT_EPOCH   = 6623
BSTAR          = .76271E-4
MEAN_MOTION_DOT = .681E-5
MEAN_MOTION_DDOT = 0

CCSDS_OMM_VERS = 2.0
CREATION_DATE  = 
ORIGINATOR     = 

OBJECT_NAME    = COSMOS 1844
OBJECT_ID      = 1987-041A
CENTER_NAME    = EARTH
REF_FRAME      = TEME
TIME_SYSTEM    = UTC
MEAN_ELEMENT_THEORY = SGP/SGP4

EPOCH          = 2025-12-12T01:36:26.976096
MEAN_MOTION    = 14.14526094
ECCENTRICITY   = .0030094
INCLINATION    = 70.8977
RA_OF_ASC_NODE = 218.9907
ARG_OF_PERICENTER = 158.2046
MEAN_ANOMALY   = 202.0364

EPHEMERIS_TYPE = 0
CLASSIFICATION_TYPE = U
NORAD_CAT_ID   = 17973
ELEMENT_SET_NO = 999
REV_AT_EPOCH   = 99119
BSTAR          = -.52499E-5
MEAN_MOTION_DOT = -.58E-6
MEAN_MOTION_DDOT = 0

CCSDS_OMM_VERS = 2.0
CREATION_DATE  = 
ORIGINATOR     = 

OBJECT_NAME    = SL-14 R/B
OBJECT_ID      = 1987-055B
CENTER_NAME    = EARTH
REF_FRAME      = TEME
TIME_SYSTEM    = UTC
MEAN_ELEMENT_THEORY = SGP/SGP4

EPOCH          = 2025-12-12T04:23:14.422848
MEAN_MOTION    = 14.85520617
ECCENTRICITY   = .001943
INCLINATION    = 82.5002
RA_OF_ASC_NODE = 71.5134
ARG_OF_PERICENTER = 305.3051
MEAN_ANOMALY   = 54.6347

EPHEMERIS_TYPE = 0
CLASSIFICATION_TYPE = U
NORAD_CAT_ID   = 18153
ELEMENT_SET_NO = 999
REV_AT_EPOCH   = 5694
BSTAR          = .90718E-4
MEAN_MOTION_DOT = .809E-5
MEAN_MOTION_DDOT = 0

CCSDS_OMM_VERS = 2.0
CREATION_DATE  = 
ORIGINATOR     = 

OBJECT_NAME    = COSMOS 1867
OBJECT_ID      = 1987-060A
CENTER_NAME    = EARTH
REF_FRAME      = TEME
TIME_SYSTEM    = UTC
MEAN_ELEMENT_THEORY = SGP/SGP4

EPOCH          = 2025-12-11T23:22:42.577824
MEAN_MOTION    = 14.31485875
ECCENTRICITY   = .0013624
INCLINATION    = 65.0092
RA_OF_ASC_NODE = 192.3470
ARG_OF_PERICENTER = 271.0133
MEAN_ANOMALY   = 88.9390

EPHEMERIS_TYPE = 0
CLASSIFICATION_TYPE = U
NORAD_CAT_ID   = 18187
ELEMENT_SET_NO = 999
REV_AT_EPOCH   = 738
BSTAR          = .33399E-4
MEAN_MOTION_DOT = -.11E-6
MEAN_MOTION_DDOT = 0

CCSDS_OMM_VERS = 2.0
CREATION_DATE  = 
ORIGINATOR     = 

OBJECT_NAME    = SL-14 R/B
OBJECT_ID      = 1988-001B
CENTER_NAME    = EARTH
REF_FRAME      = TEME
TIME_SYSTEM    = UTC
MEAN_ELEMENT_THEORY = SGP/SGP4

EPOCH          = 2025-12-12T04:08:11.937696
MEAN_MOTION    = 14.85423186
ECCENTRICITY   = .001843
INCLINATION    = 82.5132
RA_OF_ASC_NODE = 277.6809
ARG_OF_PERICENTER = 162.8934
MEAN_ANOMALY   = 197.2908

EPHEMERIS_TYPE = 0
CLASSIFICATION_TYPE = U
NORAD_CAT_ID   = 18749
ELEMENT_SET_NO = 999
REV_AT_EPOCH   = 2903
BSTAR          = .94551E-4
MEAN_MOTION_DOT = .841E-5
MEAN_MOTION_DDOT = 0

